[
  {
    "OBJECT_NAME": "STARLINK-31639",
    "OBJECT_ID": "24050H",
    "EPOCH": "2025-11-11T03:56:29.123808",
    "MEAN_MOTION": 15.30177648,
    "ECCENTRICITY": 0.0001344,
    "INCLINATION": 53.1612,
    "RA_OF_ASC_NODE": 11.4024,
    "ARG_OF_PERICENTER": 96.1363,
    "MEAN_ANOMALY": 263.9791,
    "EPHEMERIS_TYPE": 0,
    "CLASSIFICATION_TYPE": "U",
    "NORAD_CAT_ID": 59261,
    "ELEMENT_SET_NO": 999,
    "REV_AT_EPOCH": 9240,
    "BSTAR": 0.00012267000000000002,
    "MEAN_MOTION_DOT": 3.273e-05,
    "MEAN_MOTION_DDOT": 0.0,
    "TLE_LINE1": "1 59261U 24050H   25315.16422597  .00003273  00000+0  12267-3 0  9991",
    "TLE_LINE2": "2 59261  53.1612  11.4024 0001344  96.1363 263.9791 15.30177648 92409",
    "COMMENT": "Grouped by shell and plane from TLE"
  },
  {
    "OBJECT_NAME": "STARLINK-31598",
    "OBJECT_ID": "24050K",
    "EPOCH": "2025-11-11T05:06:23.171616",
    "MEAN_MOTION": 15.30203686,
    "ECCENTRICITY": 0.0002022,
    "INCLINATION": 53.1626,
    "RA_OF_ASC_NODE": 11.686,
    "ARG_OF_PERICENTER": 97.913,
    "MEAN_ANOMALY": 262.2101,
    "EPHEMERIS_TYPE": 0,
    "CLASSIFICATION_TYPE": "U",
    "NORAD_CAT_ID": 59263,
    "ELEMENT_SET_NO": 999,
    "REV_AT_EPOCH": 9240,
    "BSTAR": 0.0,
    "MEAN_MOTION_DOT": -2.49e-05,
    "MEAN_MOTION_DDOT": 0.0,
    "TLE_LINE1": "1 59263U 24050K   25315.21276819 -.00002490  00000+0 -71941-4 0  9990",
    "TLE_LINE2": "2 59263  53.1626  11.6860 0002022  97.9130 262.2101 15.30203686 92400",
    "COMMENT": "Grouped by shell and plane from TLE"
  },
  {
    "OBJECT_NAME": "STARLINK-31645",
    "OBJECT_ID": "24050L",
    "EPOCH": "2025-11-11T04:29:54.739104",
    "MEAN_MOTION": 15.30226902,
    "ECCENTRICITY": 0.0001209,
    "INCLINATION": 53.1591,
    "RA_OF_ASC_NODE": 11.5471,
    "ARG_OF_PERICENTER": 53.1004,
    "MEAN_ANOMALY": 307.0107,
    "EPHEMERIS_TYPE": 0,
    "CLASSIFICATION_TYPE": "U",
    "NORAD_CAT_ID": 59264,
    "ELEMENT_SET_NO": 999,
    "REV_AT_EPOCH": 9240,
    "BSTAR": 0.0012878000000000002,
    "MEAN_MOTION_DOT": 0.00038007,
    "MEAN_MOTION_DDOT": 0.0,
    "TLE_LINE1": "1 59264U 24050L   25315.18743911  .00038007  00000+0  12878-2 0  9992",
    "TLE_LINE2": "2 59264  53.1591  11.5471 0001209  53.1004 307.0107 15.30226902 92409",
    "COMMENT": "Grouped by shell and plane from TLE"
  },
  {
    "OBJECT_NAME": "STARLINK-31646",
    "OBJECT_ID": "24050M",
    "EPOCH": "2025-11-11T04:39:01.477440",
    "MEAN_MOTION": 15.30208398,
    "ECCENTRICITY": 0.0001107,
    "INCLINATION": 53.1619,
    "RA_OF_ASC_NODE": 11.587,
    "ARG_OF_PERICENTER": 113.3353,
    "MEAN_ANOMALY": 246.7764,
    "EPHEMERIS_TYPE": 0,
    "CLASSIFICATION_TYPE": "U",
    "NORAD_CAT_ID": 59265,
    "ELEMENT_SET_NO": 999,
    "REV_AT_EPOCH": 9240,
    "BSTAR": 9.7125e-05,
    "MEAN_MOTION_DOT": 2.519e-05,
    "MEAN_MOTION_DDOT": 0.0,
    "TLE_LINE1": "1 59265U 24050M   25315.19376710  .00002519  00000+0  97125-4 0  9992",
    "TLE_LINE2": "2 59265  53.1619  11.5870 0001107 113.3353 246.7764 15.30208398 92404",
    "COMMENT": "Grouped by shell and plane from TLE"
  },
  {
    "OBJECT_NAME": "STARLINK-31648",
    "OBJECT_ID": "24050N",
    "EPOCH": "2025-11-11T07:13:42.470400",
    "MEAN_MOTION": 15.30206991,
    "ECCENTRICITY": 0.0001224,
    "INCLINATION": 53.1605,
    "RA_OF_ASC_NODE": 10.8402,
    "ARG_OF_PERICENTER": 108.2959,
    "MEAN_ANOMALY": 251.8175,
    "EPHEMERIS_TYPE": 0,
    "CLASSIFICATION_TYPE": "U",
    "NORAD_CAT_ID": 59266,
    "ELEMENT_SET_NO": 999,
    "REV_AT_EPOCH": 9242,
    "BSTAR": 0.00029645,
    "MEAN_MOTION_DOT": 8.433e-05,
    "MEAN_MOTION_DDOT": 0.0,
    "TLE_LINE1": "1 59266U 24050N   25315.30118600  .00008433  00000+0  29645-3 0  9990",
    "TLE_LINE2": "2 59266  53.1605  10.8402 0001224 108.2959 251.8175 15.30206991 92420",
    "COMMENT": "Grouped by shell and plane from TLE"
  },
  {
    "OBJECT_NAME": "STARLINK-31579",
    "OBJECT_ID": "24050P",
    "EPOCH": "2025-11-11T04:25:20.928000",
    "MEAN_MOTION": 15.30187386,
    "ECCENTRICITY": 0.0001599,
    "INCLINATION": 53.1614,
    "RA_OF_ASC_NODE": 11.5224,
    "ARG_OF_PERICENTER": 51.5475,
    "MEAN_ANOMALY": 308.5669,
    "EPHEMERIS_TYPE": 0,
    "CLASSIFICATION_TYPE": "U",
    "NORAD_CAT_ID": 59267,
    "ELEMENT_SET_NO": 999,
    "REV_AT_EPOCH": 9240,
    "BSTAR": 0.00023215,
    "MEAN_MOTION_DOT": 6.52e-05,
    "MEAN_MOTION_DDOT": 0.0,
    "TLE_LINE1": "1 59267U 24050P   25315.18427000  .00006520  00000+0  23215-3 0  9996",
    "TLE_LINE2": "2 59267  53.1614  11.5224 0001599  51.5475 308.5669 15.30187386 92401",
    "COMMENT": "Grouped by shell and plane from TLE"
  },
  {
    "OBJECT_NAME": "STARLINK-31627",
    "OBJECT_ID": "24050Q",
    "EPOCH": "2025-11-11T03:23:12.835392",
    "MEAN_MOTION": 15.30232032,
    "ECCENTRICITY": 7.06e-05,
    "INCLINATION": 53.1602,
    "RA_OF_ASC_NODE": 11.9642,
    "ARG_OF_PERICENTER": 118.1214,
    "MEAN_ANOMALY": 241.9858,
    "EPHEMERIS_TYPE": 0,
    "CLASSIFICATION_TYPE": "U",
    "NORAD_CAT_ID": 59268,
    "ELEMENT_SET_NO": 999,
    "REV_AT_EPOCH": 9239,
    "BSTAR": 0.001177,
    "MEAN_MOTION_DOT": 0.00034696,
    "MEAN_MOTION_DDOT": 0.0,
    "TLE_LINE1": "1 59268U 24050Q   25315.14112078  .00034696  00000+0  11770-2 0  9996",
    "TLE_LINE2": "2 59268  53.1602  11.9642 0000706 118.1214 241.9858 15.30232032 92394",
    "COMMENT": "Grouped by shell and plane from TLE"
  },
  {
    "OBJECT_NAME": "STARLINK-31609",
    "OBJECT_ID": "24050R",
    "EPOCH": "2025-11-11T04:34:27.623136",
    "MEAN_MOTION": 15.30209695,
    "ECCENTRICITY": 0.0001138,
    "INCLINATION": 53.1616,
    "RA_OF_ASC_NODE": 11.5647,
    "ARG_OF_PERICENTER": 103.516,
    "MEAN_ANOMALY": 256.5968,
    "EPHEMERIS_TYPE": 0,
    "CLASSIFICATION_TYPE": "U",
    "NORAD_CAT_ID": 59269,
    "ELEMENT_SET_NO": 999,
    "REV_AT_EPOCH": 9240,
    "BSTAR": 8.800400000000001e-06,
    "MEAN_MOTION_DOT": -9.8e-07,
    "MEAN_MOTION_DDOT": 0.0,
    "TLE_LINE1": "1 59269U 24050R   25315.19059749 -.00000098  00000+0  88004-5 0  9994",
    "TLE_LINE2": "2 59269  53.1616  11.5647 0001138 103.5160 256.5968 15.30209695 92404",
    "COMMENT": "Grouped by shell and plane from TLE"
  },
  {
    "OBJECT_NAME": "STARLINK-31616",
    "OBJECT_ID": "24050S",
    "EPOCH": "2025-11-11T04:43:34.720032",
    "MEAN_MOTION": 15.30213801,
    "ECCENTRICITY": 0.0001575,
    "INCLINATION": 53.163,
    "RA_OF_ASC_NODE": 11.6037,
    "ARG_OF_PERICENTER": 103.9824,
    "MEAN_ANOMALY": 256.1352,
    "EPHEMERIS_TYPE": 0,
    "CLASSIFICATION_TYPE": "U",
    "NORAD_CAT_ID": 59270,
    "ELEMENT_SET_NO": 999,
    "REV_AT_EPOCH": 9240,
    "BSTAR": 6.861600000000001e-05,
    "MEAN_MOTION_DOT": 1.674e-05,
    "MEAN_MOTION_DDOT": 0.0,
    "TLE_LINE1": "1 59270U 24050S   25315.19692963  .00001674  00000+0  68616-4 0  9993",
    "TLE_LINE2": "2 59270  53.1630  11.6037 0001575 103.9824 256.1352 15.30213801 92409",
    "COMMENT": "Grouped by shell and plane from TLE"
  },
  {
    "OBJECT_NAME": "STARLINK-31623",
    "OBJECT_ID": "24050U",
    "EPOCH": "2025-11-11T03:29:08.096640",
    "MEAN_MOTION": 15.30203644,
    "ECCENTRICITY": 0.0001314,
    "INCLINATION": 53.1616,
    "RA_OF_ASC_NODE": 11.2901,
    "ARG_OF_PERICENTER": 61.9208,
    "MEAN_ANOMALY": 298.1926,
    "EPHEMERIS_TYPE": 0,
    "CLASSIFICATION_TYPE": "U",
    "NORAD_CAT_ID": 59272,
    "ELEMENT_SET_NO": 999,
    "REV_AT_EPOCH": 9240,
    "BSTAR": 8.528500000000001e-05,
    "MEAN_MOTION_DOT": 2.168e-05,
    "MEAN_MOTION_DDOT": 0.0,
    "TLE_LINE1": "1 59272U 24050U   25315.14523260  .00002168  00000+0  85285-4 0  9993",
    "TLE_LINE2": "2 59272  53.1616  11.2901 0001314  61.9208 298.1926 15.30203644 92408",
    "COMMENT": "Grouped by shell and plane from TLE"
  },
  {
    "OBJECT_NAME": "STARLINK-31595",
    "OBJECT_ID": "24050V",
    "EPOCH": "2025-11-11T07:18:16.331616",
    "MEAN_MOTION": 15.30169836,
    "ECCENTRICITY": 8.85e-05,
    "INCLINATION": 53.1598,
    "RA_OF_ASC_NODE": 10.8645,
    "ARG_OF_PERICENTER": 51.0772,
    "MEAN_ANOMALY": 309.0308,
    "EPHEMERIS_TYPE": 0,
    "CLASSIFICATION_TYPE": "U",
    "NORAD_CAT_ID": 59273,
    "ELEMENT_SET_NO": 999,
    "REV_AT_EPOCH": 9242,
    "BSTAR": 0.0,
    "MEAN_MOTION_DOT": -7.406e-05,
    "MEAN_MOTION_DDOT": 0.0,
    "TLE_LINE1": "1 59273U 24050V   25315.30435569 -.00007406  00000+0 -23842-3 0  9998",
    "TLE_LINE2": "2 59273  53.1598  10.8645 0000885  51.0772 309.0308 15.30169836 92428",
    "COMMENT": "Grouped by shell and plane from TLE"
  },
  {
    "OBJECT_NAME": "STARLINK-32108",
    "OBJECT_ID": "24086A",
    "EPOCH": "2025-11-11T05:35:31.849728",
    "MEAN_MOTION": 15.27566468,
    "ECCENTRICITY": 0.0001814,
    "INCLINATION": 43.0033,
    "RA_OF_ASC_NODE": 12.4886,
    "ARG_OF_PERICENTER": 299.9915,
    "MEAN_ANOMALY": 60.0756,
    "EPHEMERIS_TYPE": 0,
    "CLASSIFICATION_TYPE": "U",
    "NORAD_CAT_ID": 59682,
    "ELEMENT_SET_NO": 999,
    "REV_AT_EPOCH": 8594,
    "BSTAR": 0.00027987,
    "MEAN_MOTION_DOT": 7.444e-05,
    "MEAN_MOTION_DDOT": 0.0,
    "TLE_LINE1": "1 59682U 24086A   25315.23300752  .00007444  00000+0  27987-3 0  9992",
    "TLE_LINE2": "2 59682  43.0033  12.4886 0001814 299.9915  60.0756 15.27566468 85942",
    "COMMENT": "Grouped by shell and plane from TLE"
  },
  {
    "OBJECT_NAME": "STARLINK-32080",
    "OBJECT_ID": "24086B",
    "EPOCH": "2025-11-10T14:25:24.434400",
    "MEAN_MOTION": 15.27589185,
    "ECCENTRICITY": 0.000145,
    "INCLINATION": 43.0001,
    "RA_OF_ASC_NODE": 16.3467,
    "ARG_OF_PERICENTER": 242.8494,
    "MEAN_ANOMALY": 117.221,
    "EPHEMERIS_TYPE": 0,
    "CLASSIFICATION_TYPE": "U",
    "NORAD_CAT_ID": 59683,
    "ELEMENT_SET_NO": 999,
    "REV_AT_EPOCH": 8586,
    "BSTAR": 0.00023616999999999998,
    "MEAN_MOTION_DOT": 6.244e-05,
    "MEAN_MOTION_DDOT": 0.0,
    "TLE_LINE1": "1 59683U 24086B   25314.60097725  .00006244  00000+0  23617-3 0  9999",
    "TLE_LINE2": "2 59683  43.0001  16.3467 0001450 242.8494 117.2210 15.27589185 85863",
    "COMMENT": "Grouped by shell and plane from TLE"
  }
]